[{"OBJECT_NAME":"STSAT-3","OBJECT_ID":"2013-066G","EPOCH":"2026-03-09T22:41:44.680992","MEAN_MOTION":15.02088505,"ECCENTRICITY":0.0011318,"INCLINATION":97.6065,"RA_OF_ASC_NODE":40.5626,"ARG_OF_PERICENTER":13.5672,"MEAN_ANOMALY":346.5855,"EPHEMERIS_TYPE":0,"CLASSIFICATION_TYPE":"U","NORAD_CAT_ID":39422,"ELEMENT_SET_NO":999,"REV_AT_EPOCH":66930,"BSTAR":0.00035941523,"MEAN_MOTION_DOT":4.668e-5,"MEAN_MOTION_DDOT":0},{"OBJECT_NAME":"STARLINK-34755","OBJECT_ID":"2025-158J","EPOCH":"2026-03-09T14:46:16.628736","MEAN_MOTION":15.01256845,"ECCENTRICITY":0.0001828,"INCLINATION":97.6011,"RA_OF_ASC_NODE":294.6464,"ARG_OF_PERICENTER":46.7056,"MEAN_ANOMALY":313.4321,"EPHEMERIS_TYPE":0,"CLASSIFICATION_TYPE":"U","NORAD_CAT_ID":64940,"ELEMENT_SET_NO":999,"REV_AT_EPOCH":3538,"BSTAR":3.0929e-5,"MEAN_MOTION_DOT":3.39e-6,"MEAN_MOTION_DDOT":0}]
